{
"type": "FeatureCollection",
"name": "buildings",
"crs": { "type": "name", "properties": { "name": "urn:ogc:def:crs:OGC:1.3:CRS84" } },
"features": [
{ "type": "Feature", "properties": { "building_id": 1, "floors": 1, "damage_level": 0.089, "building_type": "industrial", "zoning_category": "industrial" }, "geometry": { "type": "Polygon", "coordinates": [ [ [ 11.564762805938676, 48.126280752958728 ], [ 11.564684730405046, 48.126869821333216 ], [ 11.56432216761735, 48.12684841136447 ], [ 11.564400243150979, 48.126259342744419 ], [ 11.564762805938676, 48.126280752958728 ] ] ] } },
{ "type": "Feature", "properties": { "building_id": 2, "floors": 4, "damage_level": 0.298, "building_type": "cultural", "zoning_category": "public" }, "geometry": { "type": "Polygon", "coordinates": [ [ [ 11.565876922769682, 48.126056104812605 ], [ 11.566047683059441, 48.12630452634685 ], [ 11.565723548234981, 48.126403795541464 ], [ 11.565552787945222, 48.126155374487361 ], [ 11.565876922769682, 48.126056104812605 ] ] ] } },
{ "type": "Feature", "properties": { "building_id": 3, "floors": 3, "damage_level": 0.164, "building_type": "residential", "zoning_category": "mixed_use" }, "geometry": { "type": "Polygon", "coordinates": [ [ [ 11.566616205870632, 48.12637208102241 ], [ 11.56661471161614, 48.12645237054528 ], [ 11.56640179570792, 48.126450605067795 ], [ 11.566403289962414, 48.126370315542161 ], [ 11.566616205870632, 48.12637208102241 ] ] ] } },
{ "type": "Feature", "properties": { "building_id": 4, "floors": 4, "damage_level": 0.286, "building_type": "commercial", "zoning_category": "commercial" }, "geometry": { "type": "Polygon", "coordinates": [ [ [ 11.567998020282413, 48.126089297215501 ], [ 11.568131017356112, 48.126286813924423 ], [ 11.567789687257434, 48.126389214892811 ], [ 11.567656690183737, 48.126191698577699 ], [ 11.567998020282413, 48.126089297215501 ] ] ] } },
{ "type": "Feature", "properties": { "building_id": 5, "floors": 4, "damage_level": 0.277, "building_type": "commercial", "zoning_category": "mixed_use" }, "geometry": { "type": "Polygon", "coordinates": [ [ [ 11.568868793604553, 48.126149763549151 ], [ 11.56894099860062, 48.126440438202138 ], [ 11.568685159086169, 48.126468753233681 ], [ 11.568612954090103, 48.126178078740942 ], [ 11.568868793604553, 48.126149763549151 ] ] ] } },
{ "type": "Feature", "properties": { "building_id": 6, "floors": 6, "damage_level": 0.149, "building_type": "residential", "zoning_category": "residential" }, "geometry": { "type": "Polygon", "coordinates": [ [ [ 11.570109911270785, 48.126325330768694 ], [ 11.570147347695888, 48.126489147808449 ], [ 11.569911721621391, 48.126513138714188 ], [ 11.569874285196287, 48.126349321750951 ], [ 11.570109911270785, 48.126325330768694 ] ] ] } },
{ "type": "Feature", "properties": { "building_id": 7, "floors": 2, "damage_level": 0.257, "building_type": "cultural", "zoning_category": "historical" }, "geometry": { "type": "Polygon", "coordinates": [ [ [ 11.571169718759769, 48.126265505515875 ], [ 11.571286392364177, 48.126505850093544 ], [ 11.571062175000778, 48.126554344926198 ], [ 11.57094550139637, 48.126314000575462 ], [ 11.571169718759769, 48.126265505515875 ] ] ] } },
{ "type": "Feature", "properties": { "building_id": 8, "floors": 2, "damage_level": 0.054, "building_type": "cultural", "zoning_category": "public" }, "geometry": { "type": "Polygon", "coordinates": [ [ [ 11.572475549472001, 48.126119836535082 ], [ 11.572361746494563, 48.126413376192396 ], [ 11.572162125691724, 48.126378894964994 ], [ 11.572275928669162, 48.126085355110611 ], [ 11.572475549472001, 48.126119836535082 ] ] ] } },
{ "type": "Feature", "properties": { "building_id": 9, "floors": 8, "damage_level": 0.399, "building_type": "commercial", "zoning_category": "mixed_use" }, "geometry": { "type": "Polygon", "coordinates": [ [ [ 11.57336054386821, 48.126449732699356 ], [ 11.573405069088638, 48.126643032529358 ], [ 11.573221548735273, 48.126661866608323 ], [ 11.573177023514845, 48.126468566849198 ], [ 11.57336054386821, 48.126449732699356 ] ] ] } },
{ "type": "Feature", "properties": { "building_id": 10, "floors": 3, "damage_level": 0.977, "building_type": "public", "zoning_category": "public" }, "geometry": { "type": "Polygon", "coordinates": [ [ [ 11.574680050600151, 48.126308264798787 ], [ 11.574747118385567, 48.126515380317535 ], [ 11.574191286614592, 48.126595572529723 ], [ 11.574124218829176, 48.12638845733435 ], [ 11.574680050600151, 48.126308264798787 ] ] ] } },
{ "type": "Feature", "properties": { "building_id": 11, "floors": 2, "damage_level": 0.209, "building_type": "residential", "zoning_category": "mixed_use" }, "geometry": { "type": "Polygon", "coordinates": [ [ [ 11.564456551309119, 48.127151594420432 ], [ 11.564388573498951, 48.127273742205027 ], [ 11.564268262644747, 48.127243911661374 ], [ 11.564336240454915, 48.127121763805839 ], [ 11.564456551309119, 48.127151594420432 ] ] ] } },
{ "type": "Feature", "properties": { "building_id": 12, "floors": 1, "damage_level": 0.122, "building_type": "industrial", "zoning_category": "industrial" }, "geometry": { "type": "Polygon", "coordinates": [ [ [ 11.565894959367057, 48.126829133845419 ], [ 11.565646711513088, 48.127430458933148 ], [ 11.565210956358511, 48.127350310860464 ], [ 11.56545920421248, 48.126748984834343 ], [ 11.565894959367057, 48.126829133845419 ] ] ] } },
{ "type": "Feature", "properties": { "building_id": 13, "floors": 1, "damage_level": 0.735, "building_type": "industrial", "zoning_category": "industrial" }, "geometry": { "type": "Polygon", "coordinates": [ [ [ 11.567261527003696, 48.126903148137558 ], [ 11.567405259196734, 48.12750212218144 ], [ 11.566414409310765, 48.127608053962661 ], [ 11.566270677117728, 48.127009081154199 ], [ 11.567261527003696, 48.126903148137558 ] ] ] } },
{ "type": "Feature", "properties": { "building_id": 14, "floors": 3, "damage_level": 0.091, "building_type": "residential", "zoning_category": "mixed_use" }, "geometry": { "type": "Polygon", "coordinates": [ [ [ 11.567732429202765, 48.126971105713103 ], [ 11.567700762388869, 48.127095786657726 ], [ 11.56753530185401, 48.127077063613399 ], [ 11.567566968667904, 48.126952382623323 ], [ 11.567732429202765, 48.126971105713103 ] ] ] } },
{ "type": "Feature", "properties": { "building_id": 15, "floors": 4, "damage_level": 0.409, "building_type": "residential", "zoning_category": "mixed_use" }, "geometry": { "type": "Polygon", "coordinates": [ [ [ 11.568885279097795, 48.126912720670539 ], [ 11.56895089489713, 48.127111742089745 ], [ 11.568710195710464, 48.127147097900398 ], [ 11.56864457991113, 48.126948076618191 ], [ 11.568885279097795, 48.126912720670539 ] ] ] } },
{ "type": "Feature", "properties": { "building_id": 16, "floors": 2, "damage_level": 0.912, "building_type": "residential", "zoning_category": "residential" }, "geometry": { "type": "Polygon", "coordinates": [ [ [ 11.5700462498855, 48.127001804009325 ], [ 11.570028053149633, 48.127104924905659 ], [ 11.569950784063449, 48.127098850132789 ], [ 11.56996898079932, 48.126995729224255 ], [ 11.5700462498855, 48.127001804009325 ] ] ] } },
{ "type": "Feature", "properties": { "building_id": 17, "floors": 2, "damage_level": 0.528, "building_type": "residential", "zoning_category": "mixed_use" }, "geometry": { "type": "Polygon", "coordinates": [ [ [ 11.571217971967398, 48.12704631173424 ], [ 11.571246579478318, 48.127211071400666 ], [ 11.571132781277356, 48.127219874597721 ], [ 11.571104173766438, 48.127055114959546 ], [ 11.571217971967398, 48.12704631173424 ] ] ] } },
{ "type": "Feature", "properties": { "building_id": 18, "floors": 5, "damage_level": 0.177, "building_type": "residential", "zoning_category": "mixed_use" }, "geometry": { "type": "Polygon", "coordinates": [ [ [ 11.572303387740448, 48.127067672302729 ], [ 11.572345759163625, 48.127252452091859 ], [ 11.572151148443089, 48.127272334113492 ], [ 11.57210877701991, 48.127087554395906 ], [ 11.572303387740448, 48.127067672302729 ] ] ] } },
{ "type": "Feature", "properties": { "building_id": 19, "floors": 1, "damage_level": 0.285, "building_type": "industrial", "zoning_category": "industrial" }, "geometry": { "type": "Polygon", "coordinates": [ [ [ 11.573485936237534, 48.127063324945759 ], [ 11.573305875013325, 48.127459266920773 ], [ 11.572680359716719, 48.127332530977895 ], [ 11.572860420940929, 48.126936588025835 ], [ 11.573485936237534, 48.127063324945759 ] ] ] } },
{ "type": "Feature", "properties": { "building_id": 20, "floors": 6, "damage_level": 0.215, "building_type": "residential", "zoning_category": "residential" }, "geometry": { "type": "Polygon", "coordinates": [ [ [ 11.574518588402059, 48.127139571699999 ], [ 11.574513245123581, 48.127277377644589 ], [ 11.574294628466376, 48.127273601072467 ], [ 11.574299971744853, 48.127135795117731 ], [ 11.574518588402059, 48.127139571699999 ] ] ] } },
{ "type": "Feature", "properties": { "building_id": 21, "floors": 5, "damage_level": 0.12, "building_type": "public", "zoning_category": "public" }, "geometry": { "type": "Polygon", "coordinates": [ [ [ 11.564839299139237, 48.127537832572735 ], [ 11.564633068904495, 48.127966154659156 ], [ 11.564102639812157, 48.127852372564611 ], [ 11.564308870046899, 48.127424049529253 ], [ 11.564839299139237, 48.127537832572735 ] ] ] } },
{ "type": "Feature", "properties": { "building_id": 22, "floors": 2, "damage_level": 0.752, "building_type": "public", "zoning_category": "public" }, "geometry": { "type": "Polygon", "coordinates": [ [ [ 11.565744976123222, 48.127910830166996 ], [ 11.565711003064266, 48.128068676539755 ], [ 11.565528258978533, 48.128051153686897 ], [ 11.565562232037488, 48.12789330726028 ], [ 11.565744976123222, 48.127910830166996 ] ] ] } },
{ "type": "Feature", "properties": { "building_id": 23, "floors": 3, "damage_level": 0.876, "building_type": "residential", "zoning_category": "mixed_use" }, "geometry": { "type": "Polygon", "coordinates": [ [ [ 11.566508880853679, 48.127651059233038 ], [ 11.56656189785839, 48.127773992916765 ], [ 11.566489716207947, 48.127787861664267 ], [ 11.566436699203235, 48.127664928013715 ], [ 11.566508880853679, 48.127651059233038 ] ] ] } },
{ "type": "Feature", "properties": { "building_id": 24, "floors": 4, "damage_level": 0.142, "building_type": "commercial", "zoning_category": "mixed_use" }, "geometry": { "type": "Polygon", "coordinates": [ [ [ 11.567945052090074, 48.127883451286529 ], [ 11.567838861350587, 48.128045297817941 ], [ 11.567599090788093, 48.127975210218921 ], [ 11.56770528152758, 48.127813363466629 ], [ 11.567945052090074, 48.127883451286529 ] ] ] } },
{ "type": "Feature", "properties": { "building_id": 25, "floors": 3, "damage_level": 0.501, "building_type": "commercial", "zoning_category": "mixed_use" }, "geometry": { "type": "Polygon", "coordinates": [ [ [ 11.569108181626216, 48.127896017700309 ], [ 11.569108363856133, 48.12806881392887 ], [ 11.568620623354493, 48.128069043087208 ], [ 11.568620441124576, 48.127896246859414 ], [ 11.569108181626216, 48.127896017700309 ] ] ] } },
{ "type": "Feature", "properties": { "building_id": 26, "floors": 8, "damage_level": 0.987, "building_type": "residential", "zoning_category": "mixed_use" }, "geometry": { "type": "Polygon", "coordinates": [ [ [ 11.570117021834394, 48.127931471690957 ], [ 11.570089412416293, 48.12797845707334 ], [ 11.569960597132814, 48.127944734209862 ], [ 11.569988206550915, 48.127897748796634 ], [ 11.570117021834394, 48.127931471690957 ] ] ] } },
{ "type": "Feature", "properties": { "building_id": 27, "floors": 1, "damage_level": 0.098, "building_type": "cultural", "zoning_category": "historical" }, "geometry": { "type": "Polygon", "coordinates": [ [ [ 11.571179314914943, 48.127899494142035 ], [ 11.571207042446286, 48.12810031378114 ], [ 11.570899225834296, 48.128119248462724 ], [ 11.570871498302949, 48.127918428897651 ], [ 11.571179314914943, 48.127899494142035 ] ] ] } },
{ "type": "Feature", "properties": { "building_id": 28, "floors": 4, "damage_level": 0.871, "building_type": "residential", "zoning_category": "mixed_use" }, "geometry": { "type": "Polygon", "coordinates": [ [ [ 11.572451850815284, 48.127914760749725 ], [ 11.572392478300827, 48.128100588924291 ], [ 11.572231116858861, 48.128077620315736 ], [ 11.572290489373319, 48.127891792058065 ], [ 11.572451850815284, 48.127914760749725 ] ] ] } },
{ "type": "Feature", "properties": { "building_id": 29, "floors": 3, "damage_level": 0.114, "building_type": "residential", "zoning_category": "residential" }, "geometry": { "type": "Polygon", "coordinates": [ [ [ 11.573403470167966, 48.127861169836173 ], [ 11.573441829204395, 48.127916731722671 ], [ 11.573276778579313, 48.127967497514604 ], [ 11.573238419542884, 48.127911935683024 ], [ 11.573403470167966, 48.127861169836173 ] ] ] } },
{ "type": "Feature", "properties": { "building_id": 30, "floors": 5, "damage_level": 0.684, "building_type": "residential", "zoning_category": "mixed_use" }, "geometry": { "type": "Polygon", "coordinates": [ [ [ 11.574453587079836, 48.127703156710503 ], [ 11.574447125659004, 48.127766192317125 ], [ 11.574308107056956, 48.127759843671107 ], [ 11.574314568477787, 48.12769680805669 ], [ 11.574453587079836, 48.127703156710503 ] ] ] } },
{ "type": "Feature", "properties": { "building_id": 31, "floors": 6, "damage_level": 0.663, "building_type": "residential", "zoning_category": "residential" }, "geometry": { "type": "Polygon", "coordinates": [ [ [ 11.564401739297907, 48.128500971242048 ], [ 11.564397034226285, 48.128597983220331 ], [ 11.564318233114866, 48.128596280570335 ], [ 11.564322938186487, 48.128499268588833 ], [ 11.564401739297907, 48.128500971242048 ] ] ] } },
{ "type": "Feature", "properties": { "building_id": 32, "floors": 4, "damage_level": 0.063, "building_type": "residential", "zoning_category": "mixed_use" }, "geometry": { "type": "Polygon", "coordinates": [ [ [ 11.565689860952068, 48.128618377153188 ], [ 11.565665574200121, 48.128752894023584 ], [ 11.565499446113614, 48.128739531592011 ], [ 11.565523732865559, 48.128605014686613 ], [ 11.565689860952068, 48.128618377153188 ] ] ] } },
{ "type": "Feature", "properties": { "building_id": 33, "floors": 1, "damage_level": 0.158, "building_type": "residential", "zoning_category": "mixed_use" }, "geometry": { "type": "Polygon", "coordinates": [ [ [ 11.566968773508888, 48.128670914313339 ], [ 11.567004870695841, 48.128756153344796 ], [ 11.566807078006281, 48.128793469282535 ], [ 11.566770980819328, 48.128708230313002 ], [ 11.566968773508888, 48.128670914313339 ] ] ] } },
{ "type": "Feature", "properties": { "building_id": 34, "floors": 2, "damage_level": 0.113, "building_type": "commercial", "zoning_category": "commercial" }, "geometry": { "type": "Polygon", "coordinates": [ [ [ 11.567833083009743, 48.128399224833679 ], [ 11.567768510458384, 48.128705512300911 ], [ 11.567403193762395, 48.128671200808675 ], [ 11.567467766313753, 48.128364913136821 ], [ 11.567833083009743, 48.128399224833679 ] ] ] } },
{ "type": "Feature", "properties": { "building_id": 35, "floors": 1, "damage_level": 0.426, "building_type": "industrial", "zoning_category": "industrial" }, "geometry": { "type": "Polygon", "coordinates": [ [ [ 11.569115069505582, 48.128602311878829 ], [ 11.569004315770776, 48.128925278375455 ], [ 11.568491747319863, 48.128846971357774 ], [ 11.56860250105467, 48.1285240043687 ], [ 11.569115069505582, 48.128602311878829 ] ] ] } },
{ "type": "Feature", "properties": { "building_id": 36, "floors": 3, "damage_level": 0.876, "building_type": "residential", "zoning_category": "residential" }, "geometry": { "type": "Polygon", "coordinates": [ [ [ 11.569808409978915, 48.1283467856558 ], [ 11.56974039301257, 48.128512217825083 ], [ 11.569668116719608, 48.128498979071061 ], [ 11.56973613368595, 48.128333546859139 ], [ 11.569808409978915, 48.1283467856558 ] ] ] } },
{ "type": "Feature", "properties": { "building_id": 37, "floors": 5, "damage_level": 0.314, "building_type": "commercial", "zoning_category": "mixed_use" }, "geometry": { "type": "Polygon", "coordinates": [ [ [ 11.571147237969575, 48.128406421290627 ], [ 11.571146072215218, 48.128690718775552 ], [ 11.570843038099353, 48.128690165199956 ], [ 11.57084420385371, 48.128405867711962 ], [ 11.571147237969575, 48.128406421290627 ] ] ] } },
{ "type": "Feature", "properties": { "building_id": 38, "floors": 8, "damage_level": 0.98, "building_type": "residential", "zoning_category": "mixed_use" }, "geometry": { "type": "Polygon", "coordinates": [ [ [ 11.572460583279971, 48.128539905492318 ], [ 11.572419600794305, 48.128715419006376 ], [ 11.572235618411373, 48.128696280212978 ], [ 11.572276600897039, 48.128520766633521 ], [ 11.572460583279971, 48.128539905492318 ] ] ] } },
{ "type": "Feature", "properties": { "building_id": 39, "floors": 2, "damage_level": 0.546, "building_type": "industrial", "zoning_category": "industrial" }, "geometry": { "type": "Polygon", "coordinates": [ [ [ 11.573662762456696, 48.128245282789926 ], [ 11.573737704273885, 48.128495569049669 ], [ 11.572884195670827, 48.128609423278803 ], [ 11.572809253853638, 48.128359137573916 ], [ 11.573662762456696, 48.128245282789926 ] ] ] } },
{ "type": "Feature", "properties": { "building_id": 40, "floors": 5, "damage_level": 0.13, "building_type": "residential", "zoning_category": "mixed_use" }, "geometry": { "type": "Polygon", "coordinates": [ [ [ 11.574276226848987, 48.128512173554775 ], [ 11.574255222180737, 48.12856197246532 ], [ 11.574039933131335, 48.128521517609336 ], [ 11.574060937799587, 48.128471718659554 ], [ 11.574276226848987, 48.128512173554775 ] ] ] } },
{ "type": "Feature", "properties": { "building_id": 41, "floors": 10, "damage_level": 0.154, "building_type": "commercial", "zoning_category": "commercial" }, "geometry": { "type": "Polygon", "coordinates": [ [ [ 11.564742206850314, 48.129000528666147 ], [ 11.564768437203661, 48.129262289955697 ], [ 11.564242853912278, 48.129285752860895 ], [ 11.564216623558931, 48.129023991690936 ], [ 11.564742206850314, 48.129000528666147 ] ] ] } },
{ "type": "Feature", "properties": { "building_id": 42, "floors": 1, "damage_level": 0.195, "building_type": "industrial", "zoning_category": "industrial" }, "geometry": { "type": "Polygon", "coordinates": [ [ [ 11.566164660050109, 48.129015769678475 ], [ 11.566312468258106, 48.129440716802492 ], [ 11.565285376604143, 48.129599868572157 ], [ 11.565137568396146, 48.129174922765067 ], [ 11.566164660050109, 48.129015769678475 ] ] ] } },
{ "type": "Feature", "properties": { "building_id": 43, "floors": 7, "damage_level": 0.548, "building_type": "residential", "zoning_category": "mixed_use" }, "geometry": { "type": "Polygon", "coordinates": [ [ [ 11.566913427106511, 48.129266625704297 ], [ 11.566941333691474, 48.129458664596861 ], [ 11.566812571625293, 48.129467000322293 ], [ 11.566784665040334, 48.129274961460908 ], [ 11.566913427106511, 48.129266625704297 ] ] ] } },
{ "type": "Feature", "properties": { "building_id": 44, "floors": 8, "damage_level": 0.445, "building_type": "residential", "zoning_category": "residential" }, "geometry": { "type": "Polygon", "coordinates": [ [ [ 11.567639516531788, 48.129378870118472 ], [ 11.567671630252091, 48.129436459745364 ], [ 11.56752126368753, 48.129473813587708 ], [ 11.567489149967225, 48.129416224002696 ], [ 11.567639516531788, 48.129378870118472 ] ] ] } },
{ "type": "Feature", "properties": { "building_id": 45, "floors": 5, "damage_level": 0.623, "building_type": "residential", "zoning_category": "residential" }, "geometry": { "type": "Polygon", "coordinates": [ [ [ 11.569059362521941, 48.12927352740796 ], [ 11.569055654104382, 48.129330758506995 ], [ 11.568895109895522, 48.129326124135993 ], [ 11.56889881831308, 48.129268893031785 ], [ 11.569059362521941, 48.12927352740796 ] ] ] } },
{ "type": "Feature", "properties": { "building_id": 46, "floors": 8, "damage_level": 0.551, "building_type": "residential", "zoning_category": "mixed_use" }, "geometry": { "type": "Polygon", "coordinates": [ [ [ 11.570073183898092, 48.129323424728135 ], [ 11.570090923499674, 48.129506748220983 ], [ 11.569863787248785, 48.129516539722573 ], [ 11.569846047647204, 48.129333216264691 ], [ 11.570073183898092, 48.129323424728135 ] ] ] } },
{ "type": "Feature", "properties": { "building_id": 47, "floors": 1, "damage_level": 0.297, "building_type": "public", "zoning_category": "mixed_use" }, "geometry": { "type": "Polygon", "coordinates": [ [ [ 11.571165475300234, 48.129150351079005 ], [ 11.571058694613408, 48.129404929167087 ], [ 11.570691424768533, 48.129336301944406 ], [ 11.570798205455358, 48.129081723516137 ], [ 11.571165475300234, 48.129150351079005 ] ] ] } },
{ "type": "Feature", "properties": { "building_id": 48, "floors": 1, "damage_level": 0.244, "building_type": "industrial", "zoning_category": "industrial" }, "geometry": { "type": "Polygon", "coordinates": [ [ [ 11.572863115909271, 48.129375338733595 ], [ 11.572672662214799, 48.129718657156978 ], [ 11.571930921733943, 48.129535350055541 ], [ 11.572121375428415, 48.129192030406699 ], [ 11.572863115909271, 48.129375338733595 ] ] ] } },
{ "type": "Feature", "properties": { "building_id": 49, "floors": 4, "damage_level": 0.53, "building_type": "residential", "zoning_category": "mixed_use" }, "geometry": { "type": "Polygon", "coordinates": [ [ [ 11.573152704530383, 48.129206214272195 ], [ 11.573112999060514, 48.129372561410044 ], [ 11.572896044822299, 48.129349491675889 ], [ 11.572935750292171, 48.129183144463319 ], [ 11.573152704530383, 48.129206214272195 ] ] ] } },
{ "type": "Feature", "properties": { "building_id": 50, "floors": 6, "damage_level": 0.291, "building_type": "residential", "zoning_category": "residential" }, "geometry": { "type": "Polygon", "coordinates": [ [ [ 11.574144945487969, 48.129140566670472 ], [ 11.574264160828394, 48.129329469861823 ], [ 11.574195918900992, 48.129348655852205 ], [ 11.574076703560568, 48.129159752731425 ], [ 11.574144945487969, 48.129140566670472 ] ] ] } },
{ "type": "Feature", "properties": { "building_id": 51, "floors": 2, "damage_level": 0.175, "building_type": "cultural", "zoning_category": "historical" }, "geometry": { "type": "Polygon", "coordinates": [ [ [ 11.564973440846014, 48.129958824681623 ], [ 11.564861473792579, 48.130120621075449 ], [ 11.564668419549328, 48.130061105903842 ], [ 11.564780386602763, 48.129899309322511 ], [ 11.564973440846014, 48.129958824681623 ] ] ] } },
{ "type": "Feature", "properties": { "building_id": 52, "floors": 2, "damage_level": 0.859, "building_type": "industrial", "zoning_category": "industrial" }, "geometry": { "type": "Polygon", "coordinates": [ [ [ 11.566094558638486, 48.129826185596819 ], [ 11.566138306419665, 48.130028388952802 ], [ 11.56549389557898, 48.130090498541477 ], [ 11.565450147797799, 48.129888295430042 ], [ 11.566094558638486, 48.129826185596819 ] ] ] } },
{ "type": "Feature", "properties": { "building_id": 53, "floors": 4, "damage_level": 0.294, "building_type": "residential", "zoning_category": "mixed_use" }, "geometry": { "type": "Polygon", "coordinates": [ [ [ 11.566716287966614, 48.129974991540216 ], [ 11.566708691387989, 48.130135899322745 ], [ 11.566459764078548, 48.130130664042092 ], [ 11.566467360657173, 48.129969756243163 ], [ 11.566716287966614, 48.129974991540216 ] ] ] } },
{ "type": "Feature", "properties": { "building_id": 54, "floors": 2, "damage_level": 0.285, "building_type": "commercial", "zoning_category": "commercial" }, "geometry": { "type": "Polygon", "coordinates": [ [ [ 11.567963080788747, 48.130024093001829 ], [ 11.567817473658895, 48.130277811129943 ], [ 11.56751968074329, 48.130201678605303 ], [ 11.567665287873144, 48.129947960101056 ], [ 11.567963080788747, 48.130024093001829 ] ] ] } },
{ "type": "Feature", "properties": { "building_id": 55, "floors": 1, "damage_level": 0.253, "building_type": "commercial", "zoning_category": "commercial" }, "geometry": { "type": "Polygon", "coordinates": [ [ [ 11.568972560459436, 48.130075227300942 ], [ 11.568954081977404, 48.130225030791365 ], [ 11.568421694692754, 48.130195775999262 ], [ 11.568440173174785, 48.13004597242351 ], [ 11.568972560459436, 48.130075227300942 ] ] ] } },
{ "type": "Feature", "properties": { "building_id": 56, "floors": 2, "damage_level": 0.424, "building_type": "industrial", "zoning_category": "industrial" }, "geometry": { "type": "Polygon", "coordinates": [ [ [ 11.57023778884064, 48.130141423810748 ], [ 11.570154039847921, 48.130311076232516 ], [ 11.569633814082604, 48.13019667377403 ], [ 11.569717563075322, 48.130027020974332 ], [ 11.57023778884064, 48.130141423810748 ] ] ] } },
{ "type": "Feature", "properties": { "building_id": 57, "floors": 2, "damage_level": 0.333, "building_type": "cultural", "zoning_category": "historical" }, "geometry": { "type": "Polygon", "coordinates": [ [ [ 11.571330312900093, 48.130089942188086 ], [ 11.571379132322589, 48.130237799950159 ], [ 11.571162944292496, 48.130269598305134 ], [ 11.571114124870002, 48.130121740634607 ], [ 11.571330312900093, 48.130089942188086 ] ] ] } },
{ "type": "Feature", "properties": { "building_id": 58, "floors": 4, "damage_level": 0.078, "building_type": "public", "zoning_category": "mixed_use" }, "geometry": { "type": "Polygon", "coordinates": [ [ [ 11.572354653037005, 48.129780417321449 ], [ 11.572240837544021, 48.130094039424165 ], [ 11.571714426083062, 48.130008935774661 ], [ 11.571828241576045, 48.129695313152219 ], [ 11.572354653037005, 48.129780417321449 ] ] ] } },
{ "type": "Feature", "properties": { "building_id": 59, "floors": 2, "damage_level": 0.747, "building_type": "commercial", "zoning_category": "commercial" }, "geometry": { "type": "Polygon", "coordinates": [ [ [ 11.57345265452734, 48.130045084606316 ], [ 11.57336924211732, 48.130264563235635 ], [ 11.573036951335798, 48.130208305603915 ], [ 11.57312036374582, 48.129988826734163 ], [ 11.57345265452734, 48.130045084606316 ] ] ] } },
{ "type": "Feature", "properties": { "building_id": 60, "floors": 1, "damage_level": 0.197, "building_type": "public", "zoning_category": "mixed_use" }, "geometry": { "type": "Polygon", "coordinates": [ [ [ 11.574645679500364, 48.130018553941923 ], [ 11.574495381349125, 48.130291085948777 ], [ 11.574128375751568, 48.130200921889902 ], [ 11.574278673902805, 48.129928389404547 ], [ 11.574645679500364, 48.130018553941923 ] ] ] } },
{ "type": "Feature", "properties": { "building_id": 61, "floors": 1, "damage_level": 0.559, "building_type": "industrial", "zoning_category": "industrial" }, "geometry": { "type": "Polygon", "coordinates": [ [ [ 11.565113432118865, 48.130756316984282 ], [ 11.564990899318659, 48.130965760215872 ], [ 11.563943207151794, 48.13069271569762 ], [ 11.564065739952005, 48.130483271352432 ], [ 11.565113432118865, 48.130756316984282 ] ] ] } },
{ "type": "Feature", "properties": { "building_id": 62, "floors": 4, "damage_level": 0.102, "building_type": "residential", "zoning_category": "mixed_use" }, "geometry": { "type": "Polygon", "coordinates": [ [ [ 11.56577430934691, 48.130582822350327 ], [ 11.565769279310977, 48.130686026360571 ], [ 11.565593365460234, 48.130682206993228 ], [ 11.565598395496167, 48.130579002975317 ], [ 11.56577430934691, 48.130582822350327 ] ] ] } },
{ "type": "Feature", "properties": { "building_id": 63, "floors": 4, "damage_level": 0.136, "building_type": "residential", "zoning_category": "mixed_use" }, "geometry": { "type": "Polygon", "coordinates": [ [ [ 11.566873429105751, 48.130699625484006 ], [ 11.566846208868917, 48.130822986203484 ], [ 11.566615710165756, 48.130800329421746 ], [ 11.56664293040259, 48.13067696864784 ], [ 11.566873429105751, 48.130699625484006 ] ] ] } },
{ "type": "Feature", "properties": { "building_id": 64, "floors": 3, "damage_level": 0.058, "building_type": "residential", "zoning_category": "residential" }, "geometry": { "type": "Polygon", "coordinates": [ [ [ 11.567739352469356, 48.130534948784877 ], [ 11.567764606977015, 48.130668367735311 ], [ 11.567595502085272, 48.130682626923068 ], [ 11.567570247577613, 48.130549208009683 ], [ 11.567739352469356, 48.130534948784877 ] ] ] } },
{ "type": "Feature", "properties": { "building_id": 65, "floors": 1, "damage_level": 0.757, "building_type": "residential", "zoning_category": "residential" }, "geometry": { "type": "Polygon", "coordinates": [ [ [ 11.569225835195301, 48.130507925323265 ], [ 11.569123947556417, 48.130684677850176 ], [ 11.569043165793842, 48.130663934138006 ], [ 11.569145053432726, 48.130487181539714 ], [ 11.569225835195301, 48.130507925323265 ] ] ] } },
{ "type": "Feature", "properties": { "building_id": 66, "floors": 2, "damage_level": 0.102, "building_type": "industrial", "zoning_category": "industrial" }, "geometry": { "type": "Polygon", "coordinates": [ [ [ 11.570107657106799, 48.130463540571398 ], [ 11.570046410827928, 48.130858249147785 ], [ 11.569419194440563, 48.130814894475435 ], [ 11.569480440719436, 48.130420185565811 ], [ 11.570107657106799, 48.130463540571398 ] ] ] } },
{ "type": "Feature", "properties": { "building_id": 67, "floors": 1, "damage_level": 0.228, "building_type": "industrial", "zoning_category": "industrial" }, "geometry": { "type": "Polygon", "coordinates": [ [ [ 11.57155492247291, 48.130510841131233 ], [ 11.571537681955437, 48.130921337887081 ], [ 11.570459725951643, 48.130901170210301 ], [ 11.570476966469114, 48.130490673293245 ], [ 11.57155492247291, 48.130510841131233 ] ] ] } },
{ "type": "Feature", "properties": { "building_id": 68, "floors": 2, "damage_level": 0.355, "building_type": "residential", "zoning_category": "residential" }, "geometry": { "type": "Polygon", "coordinates": [ [ [ 11.571976937247126, 48.13059410728205 ], [ 11.572073695140324, 48.130766468057672 ], [ 11.571911516053158, 48.130807024368224 ], [ 11.571814758159961, 48.130634663728735 ], [ 11.571976937247126, 48.13059410728205 ] ] ] } },
{ "type": "Feature", "properties": { "building_id": 69, "floors": 4, "damage_level": 0.725, "building_type": "residential", "zoning_category": "residential" }, "geometry": { "type": "Polygon", "coordinates": [ [ [ 11.573304247751764, 48.130558458124888 ], [ 11.573288943766885, 48.130692984661259 ], [ 11.573201713266572, 48.130688564055063 ], [ 11.573217017251451, 48.130554037507117 ], [ 11.573304247751764, 48.130558458124888 ] ] ] } },
{ "type": "Feature", "properties": { "building_id": 70, "floors": 3, "damage_level": 0.752, "building_type": "residential", "zoning_category": "residential" }, "geometry": { "type": "Polygon", "coordinates": [ [ [ 11.574487239213735, 48.130625592260685 ], [ 11.574515666012392, 48.130752808239784 ], [ 11.574401165950999, 48.130764205692429 ], [ 11.574372739152341, 48.130636989741575 ], [ 11.574487239213735, 48.130625592260685 ] ] ] } },
{ "type": "Feature", "properties": { "building_id": 71, "floors": 2, "damage_level": 0.097, "building_type": "residential", "zoning_category": "mixed_use" }, "geometry": { "type": "Polygon", "coordinates": [ [ [ 11.564921083967256, 48.131239980750586 ], [ 11.56488242466553, 48.13131149927468 ], [ 11.564766643015966, 48.131283620000467 ], [ 11.564805302317692, 48.131212101437541 ], [ 11.564921083967256, 48.131239980750586 ] ] ] } },
{ "type": "Feature", "properties": { "building_id": 72, "floors": 9, "damage_level": 0.744, "building_type": "residential", "zoning_category": "mixed_use" }, "geometry": { "type": "Polygon", "coordinates": [ [ [ 11.56558488825508, 48.131457247072944 ], [ 11.565555423123104, 48.131501933720735 ], [ 11.565338786086938, 48.13143830306413 ], [ 11.565368251218915, 48.131393616360981 ], [ 11.56558488825508, 48.131457247072944 ] ] ] } },
{ "type": "Feature", "properties": { "building_id": 73, "floors": 2, "damage_level": 0.443, "building_type": "industrial", "zoning_category": "industrial" }, "geometry": { "type": "Polygon", "coordinates": [ [ [ 11.567309438618771, 48.131538916187885 ], [ 11.567158059774478, 48.131772394040645 ], [ 11.566212718719985, 48.131499365399122 ], [ 11.566364097564277, 48.131265886304995 ], [ 11.567309438618771, 48.131538916187885 ] ] ] } },
{ "type": "Feature", "properties": { "building_id": 74, "floors": 1, "damage_level": 0.53, "building_type": "industrial", "zoning_category": "industrial" }, "geometry": { "type": "Polygon", "coordinates": [ [ [ 11.568251010253698, 48.131189050605926 ], [ 11.568026070352852, 48.131568223033767 ], [ 11.567664478585685, 48.131472668390074 ], [ 11.56788941848653, 48.131093495256678 ], [ 11.568251010253698, 48.131189050605926 ] ] ] } },
{ "type": "Feature", "properties": { "building_id": 75, "floors": 2, "damage_level": 0.297, "building_type": "residential", "zoning_category": "mixed_use" }, "geometry": { "type": "Polygon", "coordinates": [ [ [ 11.568860253742729, 48.131376038726934 ], [ 11.568917262447977, 48.131551016969226 ], [ 11.568790445743257, 48.131569421978959 ], [ 11.568733437038007, 48.131394443799387 ], [ 11.568860253742729, 48.131376038726934 ] ] ] } },
{ "type": "Feature", "properties": { "building_id": 76, "floors": 5, "damage_level": 0.627, "building_type": "commercial", "zoning_category": "mixed_use" }, "geometry": { "type": "Polygon", "coordinates": [ [ [ 11.570319388156452, 48.131361166757117 ], [ 11.570357400340628, 48.13167828290279 ], [ 11.569876267846928, 48.131703973253664 ], [ 11.569838255662754, 48.131386857266627 ], [ 11.570319388156452, 48.131361166757117 ] ] ] } },
{ "type": "Feature", "properties": { "building_id": 77, "floors": 1, "damage_level": 0.472, "building_type": "residential", "zoning_category": "residential" }, "geometry": { "type": "Polygon", "coordinates": [ [ [ 11.571432675902887, 48.131600404262905 ], [ 11.571405723730125, 48.131668664541088 ], [ 11.571189978638303, 48.131630718461892 ], [ 11.571216930811067, 48.131562458133281 ], [ 11.571432675902887, 48.131600404262905 ] ] ] } },
{ "type": "Feature", "properties": { "building_id": 78, "floors": 2, "damage_level": 0.572, "building_type": "residential", "zoning_category": "residential" }, "geometry": { "type": "Polygon", "coordinates": [ [ [ 11.572075713237536, 48.131254101238817 ], [ 11.572041597902732, 48.131395479675476 ], [ 11.571914560839721, 48.131381824352054 ], [ 11.571948676174525, 48.131240445877793 ], [ 11.572075713237536, 48.131254101238817 ] ] ] } },
{ "type": "Feature", "properties": { "building_id": 79, "floors": 2, "damage_level": 0.451, "building_type": "public", "zoning_category": "public" }, "geometry": { "type": "Polygon", "coordinates": [ [ [ 11.573324013680779, 48.131271535950326 ], [ 11.573395317778415, 48.131739608891216 ], [ 11.573092057997831, 48.131760187512221 ], [ 11.573020753900195, 48.131292114758899 ], [ 11.573324013680779, 48.131271535950326 ] ] ] } },
{ "type": "Feature", "properties": { "building_id": 80, "floors": 4, "damage_level": 0.233, "building_type": "commercial", "zoning_category": "commercial" }, "geometry": { "type": "Polygon", "coordinates": [ [ [ 11.574573300772361, 48.1315577612867 ], [ 11.574498001643121, 48.131704285268988 ], [ 11.574097474996156, 48.131612597191314 ], [ 11.574172774125397, 48.131466072947397 ], [ 11.574573300772361, 48.1315577612867 ] ] ] } },
{ "type": "Feature", "properties": { "building_id": 81, "floors": 2, "damage_level": 0.112, "building_type": "commercial", "zoning_category": "commercial" }, "geometry": { "type": "Polygon", "coordinates": [ [ [ 11.564833780815327, 48.13219570502735 ], [ 11.564823062057492, 48.13231285440618 ], [ 11.564381502543624, 48.132294858107265 ], [ 11.564392221301457, 48.132177708687379 ], [ 11.564833780815327, 48.13219570502735 ] ] ] } },
{ "type": "Feature", "properties": { "building_id": 82, "floors": 4, "damage_level": 0.164, "building_type": "residential", "zoning_category": "mixed_use" }, "geometry": { "type": "Polygon", "coordinates": [ [ [ 11.565923049658071, 48.132231450432855 ], [ 11.565916313418411, 48.132360645313646 ], [ 11.565736048393003, 48.132356458608605 ], [ 11.565742784632663, 48.132227263717276 ], [ 11.565923049658071, 48.132231450432855 ] ] ] } },
{ "type": "Feature", "properties": { "building_id": 83, "floors": 1, "damage_level": 0.47, "building_type": "industrial", "zoning_category": "industrial" }, "geometry": { "type": "Polygon", "coordinates": [ [ [ 11.567298750164772, 48.131994178851492 ], [ 11.567106885254525, 48.132430956557435 ], [ 11.566218673450644, 48.132257160016884 ], [ 11.566410538360891, 48.13182038083265 ], [ 11.567298750164772, 48.131994178851492 ] ] ] } },
{ "type": "Feature", "properties": { "building_id": 84, "floors": 3, "damage_level": 0.873, "building_type": "residential", "zoning_category": "residential" }, "geometry": { "type": "Polygon", "coordinates": [ [ [ 11.568189102522334, 48.132042893059044 ], [ 11.568170208428111, 48.132172135700067 ], [ 11.567993856799305, 48.132160651741572 ], [ 11.56801275089353, 48.132031409071637 ], [ 11.568189102522334, 48.132042893059044 ] ] ] } },
{ "type": "Feature", "properties": { "building_id": 85, "floors": 6, "damage_level": 0.606, "building_type": "public", "zoning_category": "mixed_use" }, "geometry": { "type": "Polygon", "coordinates": [ [ [ 11.568891620957126, 48.132063942395618 ], [ 11.568960515415201, 48.132481889509386 ], [ 11.568432955576426, 48.132520626184402 ], [ 11.568364061118352, 48.132102679385909 ], [ 11.568891620957126, 48.132063942395618 ] ] ] } },
{ "type": "Feature", "properties": { "building_id": 86, "floors": 7, "damage_level": 0.334, "building_type": "residential", "zoning_category": "residential" }, "geometry": { "type": "Polygon", "coordinates": [ [ [ 11.569841151705198, 48.131892662048131 ], [ 11.569929732262993, 48.132066656170501 ], [ 11.569694155050993, 48.132120079468599 ], [ 11.569605574493197, 48.131946085527261 ], [ 11.569841151705198, 48.131892662048131 ] ] ] } },
{ "type": "Feature", "properties": { "building_id": 87, "floors": 4, "damage_level": 0.236, "building_type": "residential", "zoning_category": "mixed_use" }, "geometry": { "type": "Polygon", "coordinates": [ [ [ 11.571370868665008, 48.132207379731071 ], [ 11.571347101385165, 48.132382150779769 ], [ 11.571238746451305, 48.132375587103006 ], [ 11.571262513731151, 48.132200816031983 ], [ 11.571370868665008, 48.132207379731071 ] ] ] } },
{ "type": "Feature", "properties": { "building_id": 88, "floors": 3, "damage_level": 0.234, "building_type": "public", "zoning_category": "mixed_use" }, "geometry": { "type": "Polygon", "coordinates": [ [ [ 11.572153122283687, 48.132018172553266 ], [ 11.572166018586232, 48.132225433832446 ], [ 11.571742979584151, 48.132237158989383 ], [ 11.571730083281608, 48.132029897757519 ], [ 11.572153122283687, 48.132018172553266 ] ] ] } },
{ "type": "Feature", "properties": { "building_id": 89, "floors": 1, "damage_level": 0.245, "building_type": "residential", "zoning_category": "mixed_use" }, "geometry": { "type": "Polygon", "coordinates": [ [ [ 11.573083788210939, 48.131991438710379 ], [ 11.573114864225731, 48.132072417865153 ], [ 11.572996933481393, 48.132092577021581 ], [ 11.572965857466601, 48.13201159789859 ], [ 11.573083788210939, 48.131991438710379 ] ] ] } },
{ "type": "Feature", "properties": { "building_id": 90, "floors": 3, "damage_level": 0.299, "building_type": "residential", "zoning_category": "mixed_use" }, "geometry": { "type": "Polygon", "coordinates": [ [ [ 11.574355533288184, 48.132242452146869 ], [ 11.57443531070788, 48.132376616307909 ], [ 11.574284650340351, 48.13241652162074 ], [ 11.574204872920655, 48.132282357563966 ], [ 11.574355533288184, 48.132242452146869 ] ] ] } },
{ "type": "Feature", "properties": { "building_id": 91, "floors": 3, "damage_level": 0.413, "building_type": "public", "zoning_category": "mixed_use" }, "geometry": { "type": "Polygon", "coordinates": [ [ [ 11.565008318794851, 48.132564293938906 ], [ 11.565101755106307, 48.13290751528389 ], [ 11.564481349768897, 48.132982746296534 ], [ 11.564387913457441, 48.132639525454401 ], [ 11.565008318794851, 48.132564293938906 ] ] ] } },
{ "type": "Feature", "properties": { "building_id": 92, "floors": 3, "damage_level": 0.347, "building_type": "residential", "zoning_category": "residential" }, "geometry": { "type": "Polygon", "coordinates": [ [ [ 11.565905131289677, 48.132814343341501 ], [ 11.565798520754978, 48.132987781059427 ], [ 11.565701793163829, 48.132961296955493 ], [ 11.565808403698528, 48.132787859148124 ], [ 11.565905131289677, 48.132814343341501 ] ] ] } },
{ "type": "Feature", "properties": { "building_id": 93, "floors": 6, "damage_level": 0.976, "building_type": "commercial", "zoning_category": "mixed_use" }, "geometry": { "type": "Polygon", "coordinates": [ [ [ 11.566949468743921, 48.13269143870555 ], [ 11.566934400482697, 48.132914092808555 ], [ 11.566446091397372, 48.132899372836434 ], [ 11.566461159658596, 48.132676718669607 ], [ 11.566949468743921, 48.13269143870555 ] ] ] } },
{ "type": "Feature", "properties": { "building_id": 94, "floors": 2, "damage_level": 0.645, "building_type": "residential", "zoning_category": "mixed_use" }, "geometry": { "type": "Polygon", "coordinates": [ [ [ 11.567778044047012, 48.132706299333563 ], [ 11.567822441307221, 48.132787586642948 ], [ 11.567644739791797, 48.132830818669568 ], [ 11.567600342531588, 48.132749531428615 ], [ 11.567778044047012, 48.132706299333563 ] ] ] } },
{ "type": "Feature", "properties": { "building_id": 95, "floors": 6, "damage_level": 0.871, "building_type": "public", "zoning_category": "public" }, "geometry": { "type": "Polygon", "coordinates": [ [ [ 11.568905084779113, 48.132795727517696 ], [ 11.569035182745866, 48.133026073380158 ], [ 11.568662103723545, 48.133119930742971 ], [ 11.568532005756794, 48.132889585301541 ], [ 11.568905084779113, 48.132795727517696 ] ] ] } },
{ "type": "Feature", "properties": { "building_id": 96, "floors": 1, "damage_level": 0.761, "building_type": "industrial", "zoning_category": "industrial" }, "geometry": { "type": "Polygon", "coordinates": [ [ [ 11.570576663014227, 48.132690762367609 ], [ 11.57047670664725, 48.133301073393767 ], [ 11.569566967655259, 48.133234706557921 ], [ 11.569666924022236, 48.132624394742955 ], [ 11.570576663014227, 48.132690762367609 ] ] ] } },
{ "type": "Feature", "properties": { "building_id": 97, "floors": 2, "damage_level": 0.423, "building_type": "residential", "zoning_category": "residential" }, "geometry": { "type": "Polygon", "coordinates": [ [ [ 11.571057817473104, 48.132926310770735 ], [ 11.571089509854131, 48.133042970132323 ], [ 11.570921206157783, 48.133063336139642 ], [ 11.570889513776754, 48.132946676824325 ], [ 11.571057817473104, 48.132926310770735 ] ] ] } },
{ "type": "Feature", "properties": { "building_id": 98, "floors": 4, "damage_level": 0.921, "building_type": "residential", "zoning_category": "mixed_use" }, "geometry": { "type": "Polygon", "coordinates": [ [ [ 11.572450986388073, 48.132909864577819 ], [ 11.572448926895399, 48.133036294045858 ], [ 11.57234434992753, 48.133035535249569 ], [ 11.572346409420204, 48.132909105779653 ], [ 11.572450986388073, 48.132909864577819 ] ] ] } },
{ "type": "Feature", "properties": { "building_id": 99, "floors": 2, "damage_level": 0.846, "building_type": "residential", "zoning_category": "residential" }, "geometry": { "type": "Polygon", "coordinates": [ [ [ 11.573434519017191, 48.132901317420377 ], [ 11.573456924310992, 48.132975580783345 ], [ 11.573293884319638, 48.13299749107189 ], [ 11.573271479025838, 48.132923227740605 ], [ 11.573434519017191, 48.132901317420377 ] ] ] } },
{ "type": "Feature", "properties": { "building_id": 100, "floors": 3, "damage_level": 0.151, "building_type": "residential", "zoning_category": "mixed_use" }, "geometry": { "type": "Polygon", "coordinates": [ [ [ 11.574086750562628, 48.132931323638452 ], [ 11.57416974309832, 48.1330862670928 ], [ 11.574017911745441, 48.133122491692262 ], [ 11.573934919209748, 48.132967548347224 ], [ 11.574086750562628, 48.132931323638452 ] ] ] } }
]
}
