{
"type": "FeatureCollection",
"name": "roads",
"crs": { "type": "name", "properties": { "name": "urn:ogc:def:crs:OGC:1.3:CRS84" } },
"features": [
{ "type": "Feature", "properties": { "road_id": 1, "highway": "primary" }, "geometry": { "type": "LineString", "coordinates": [ [ 11.553830324885849, 48.124603550333312 ], [ 11.561870081431413, 48.127709747497533 ], [ 11.570083361481503, 48.130023661220044 ], [ 11.57796123607198, 48.13201596679184 ], [ 11.586169675114153, 48.135395882654159 ] ] } },
{ "type": "Feature", "properties": { "road_id": 2, "highway": "primary" }, "geometry": { "type": "LineString", "coordinates": [ [ 11.554728640169969, 48.135096126270717 ], [ 11.562654685628848, 48.132486055774187 ], [ 11.570934648548322, 48.130649471875238 ], [ 11.57746341340453, 48.128014150839086 ], [ 11.585271359830033, 48.124903367968102 ] ] } },
{ "type": "Feature", "properties": { "road_id": 3, "highway": "secondary" }, "geometry": { "type": "LineString", "coordinates": [ [ 11.556525270738208, 48.121005602209451 ], [ 11.556730881381064, 48.129931322940308 ], [ 11.556525270738208, 48.138992822755746 ] ] } },
{ "type": "Feature", "properties": { "road_id": 4, "highway": "secondary" }, "geometry": { "type": "LineString", "coordinates": [ [ 11.561016847158806, 48.121005602209451 ], [ 11.560669137804476, 48.130005343592472 ], [ 11.561016847158806, 48.138992822755746 ] ] } },
{ "type": "Feature", "properties": { "road_id": 5, "highway": "secondary" }, "geometry": { "type": "LineString", "coordinates": [ [ 11.565508423579404, 48.121005602209451 ], [ 11.565379773609965, 48.130024143066535 ], [ 11.565508423579404, 48.138992822755746 ] ] } },
{ "type": "Feature", "properties": { "road_id": 6, "highway": "secondary" }, "geometry": { "type": "LineString", "coordinates": [ [ 11.57, 48.121005602209451 ], [ 11.569608932754928, 48.129971154643954 ], [ 11.57, 48.138992822755746 ] ] } },
{ "type": "Feature", "properties": { "road_id": 7, "highway": "secondary" }, "geometry": { "type": "LineString", "coordinates": [ [ 11.574491576420598, 48.121005602209451 ], [ 11.574544337468909, 48.129935175552163 ], [ 11.574491576420598, 48.138992822755746 ] ] } },
{ "type": "Feature", "properties": { "road_id": 8, "highway": "secondary" }, "geometry": { "type": "LineString", "coordinates": [ [ 11.578983152841197, 48.121005602209451 ], [ 11.57902582612587, 48.129902102749327 ], [ 11.578983152841197, 48.138992822755746 ] ] } },
{ "type": "Feature", "properties": { "road_id": 9, "highway": "secondary" }, "geometry": { "type": "LineString", "coordinates": [ [ 11.583474729261793, 48.121005602209451 ], [ 11.583464788088428, 48.129906117759212 ], [ 11.583474729261793, 48.138992822755746 ] ] } },
{ "type": "Feature", "properties": { "road_id": 10, "highway": "secondary" }, "geometry": { "type": "LineString", "coordinates": [ [ 11.556525270738208, 48.121005602209451 ], [ 11.570150582373952, 48.121341366543199 ], [ 11.583474729261793, 48.121005602209451 ] ] } },
{ "type": "Feature", "properties": { "road_id": 11, "highway": "secondary" }, "geometry": { "type": "LineString", "coordinates": [ [ 11.556525270738208, 48.12400390981351 ], [ 11.569869889775884, 48.123926518294056 ], [ 11.583474729261793, 48.12400390981351 ] ] } },
{ "type": "Feature", "properties": { "road_id": 12, "highway": "secondary" }, "geometry": { "type": "LineString", "coordinates": [ [ 11.556525270738208, 48.127002042409693 ], [ 11.569877769621039, 48.126965116183378 ], [ 11.583474729261793, 48.127002042409693 ] ] } },
{ "type": "Feature", "properties": { "road_id": 13, "highway": "secondary" }, "geometry": { "type": "LineString", "coordinates": [ [ 11.556525270738208, 48.13 ], [ 11.570132371558387, 48.129668763854731 ], [ 11.583474729261793, 48.13 ] ] } },
{ "type": "Feature", "properties": { "road_id": 14, "highway": "secondary" }, "geometry": { "type": "LineString", "coordinates": [ [ 11.556525270738208, 48.132997782586443 ], [ 11.569939108585457, 48.133099552298411 ], [ 11.583474729261793, 48.132997782586443 ] ] } },
{ "type": "Feature", "properties": { "road_id": 15, "highway": "secondary" }, "geometry": { "type": "LineString", "coordinates": [ [ 11.556525270738208, 48.135995390171018 ], [ 11.569898083978643, 48.136124739441605 ], [ 11.583474729261793, 48.135995390171018 ] ] } },
{ "type": "Feature", "properties": { "road_id": 16, "highway": "secondary" }, "geometry": { "type": "LineString", "coordinates": [ [ 11.556525270738208, 48.138992822755746 ], [ 11.570142131101962, 48.139242962984476 ], [ 11.583474729261793, 48.138992822755746 ] ] } },
{ "type": "Feature", "properties": { "road_id": 17, "highway": "residential" }, "geometry": { "type": "LineString", "coordinates": [ [ 11.557648164843357, 48.121099535825202 ], [ 11.55737174611013, 48.129945465990751 ], [ 11.557648164843357, 48.13939746201391 ] ] } },
{ "type": "Feature", "properties": { "road_id": 18, "highway": "residential" }, "geometry": { "type": "LineString", "coordinates": [ [ 11.559893953053656, 48.120838008757865 ], [ 11.559829774643752, 48.129982822600439 ], [ 11.559893953053656, 48.138886047419547 ] ] } },
{ "type": "Feature", "properties": { "road_id": 19, "highway": "residential" }, "geometry": { "type": "LineString", "coordinates": [ [ 11.562139741263955, 48.120795411413148 ], [ 11.562000496943163, 48.129948982298693 ], [ 11.562139741263955, 48.13903377470583 ] ] } },
{ "type": "Feature", "properties": { "road_id": 20, "highway": "residential" }, "geometry": { "type": "LineString", "coordinates": [ [ 11.564385529474254, 48.121472761496221 ], [ 11.564134301081397, 48.130037828481285 ], [ 11.564385529474254, 48.139253945778485 ] ] } },
{ "type": "Feature", "properties": { "road_id": 21, "highway": "residential" }, "geometry": { "type": "LineString", "coordinates": [ [ 11.566631317684553, 48.121204078641384 ], [ 11.566701001023747, 48.129983027942842 ], [ 11.566631317684553, 48.139212474608954 ] ] } },
{ "type": "Feature", "properties": { "road_id": 22, "highway": "residential" }, "geometry": { "type": "LineString", "coordinates": [ [ 11.568877105894851, 48.120637032460699 ], [ 11.568913180872181, 48.129947664158657 ], [ 11.568877105894851, 48.139341092380548 ] ] } },
{ "type": "Feature", "properties": { "road_id": 23, "highway": "residential" }, "geometry": { "type": "LineString", "coordinates": [ [ 11.57112289410515, 48.120824241991066 ], [ 11.57127136334454, 48.130046432518959 ], [ 11.57112289410515, 48.138825146990541 ] ] } },
{ "type": "Feature", "properties": { "road_id": 24, "highway": "residential" }, "geometry": { "type": "LineString", "coordinates": [ [ 11.573368682315449, 48.120978942800129 ], [ 11.573530472385432, 48.130007348042589 ], [ 11.573368682315449, 48.138627955117606 ] ] } },
{ "type": "Feature", "properties": { "road_id": 25, "highway": "residential" }, "geometry": { "type": "LineString", "coordinates": [ [ 11.575614470525748, 48.121265590884981 ], [ 11.575613705072461, 48.129943090696294 ], [ 11.575614470525748, 48.138986871799013 ] ] } },
{ "type": "Feature", "properties": { "road_id": 26, "highway": "residential" }, "geometry": { "type": "LineString", "coordinates": [ [ 11.577860258736047, 48.120629377975014 ], [ 11.577900429098536, 48.130001027752741 ], [ 11.577860258736047, 48.138543390891741 ] ] } },
{ "type": "Feature", "properties": { "road_id": 27, "highway": "residential" }, "geometry": { "type": "LineString", "coordinates": [ [ 11.580106046946346, 48.121396655224018 ], [ 11.580103657411097, 48.12996747887501 ], [ 11.580106046946346, 48.138752355727036 ] ] } },
{ "type": "Feature", "properties": { "road_id": 28, "highway": "residential" }, "geometry": { "type": "LineString", "coordinates": [ [ 11.582351835156643, 48.120599718567846 ], [ 11.582246437893017, 48.130036948181484 ], [ 11.582351835156643, 48.138791162375895 ] ] } },
{ "type": "Feature", "properties": { "road_id": 29, "highway": "residential" }, "geometry": { "type": "LineString", "coordinates": [ [ 11.556717012551699, 48.121755195517558 ], [ 11.569943688218681, 48.121911538341898 ], [ 11.584008631222774, 48.121755195517558 ] ] } },
{ "type": "Feature", "properties": { "road_id": 30, "highway": "residential" }, "geometry": { "type": "LineString", "coordinates": [ [ 11.556581817517767, 48.123254349319559 ], [ 11.569967301947981, 48.123350092888771 ], [ 11.583916614366331, 48.123254349319559 ] ] } },
{ "type": "Feature", "properties": { "road_id": 31, "highway": "residential" }, "geometry": { "type": "LineString", "coordinates": [ [ 11.556134230735392, 48.124753459369465 ], [ 11.570064809959279, 48.124808745283225 ], [ 11.583369960961681, 48.124753459369465 ] ] } },
{ "type": "Feature", "properties": { "road_id": 32, "highway": "residential" }, "geometry": { "type": "LineString", "coordinates": [ [ 11.556540717884079, 48.126252525667525 ], [ 11.569931703849891, 48.126133074306082 ], [ 11.583356023728719, 48.126252525667525 ] ] } },
{ "type": "Feature", "properties": { "road_id": 33, "highway": "residential" }, "geometry": { "type": "LineString", "coordinates": [ [ 11.557161866828624, 48.127751548213993 ], [ 11.570036475006749, 48.127741954784803 ], [ 11.583220618048427, 48.127751548213993 ] ] } },
{ "type": "Feature", "properties": { "road_id": 34, "highway": "residential" }, "geometry": { "type": "LineString", "coordinates": [ [ 11.5572033652273, 48.129250527009113 ], [ 11.56999950565816, 48.129137352662724 ], [ 11.584139406818828, 48.129250527009113 ] ] } },
{ "type": "Feature", "properties": { "road_id": 35, "highway": "residential" }, "geometry": { "type": "LineString", "coordinates": [ [ 11.556216021022328, 48.130749462053146 ], [ 11.570000481321504, 48.130735093080162 ], [ 11.582809094808248, 48.130749462053146 ] ] } },
{ "type": "Feature", "properties": { "road_id": 36, "highway": "residential" }, "geometry": { "type": "LineString", "coordinates": [ [ 11.556207118315216, 48.132248353346334 ], [ 11.569936200727227, 48.132153401491585 ], [ 11.584061531638351, 48.132248353346334 ] ] } },
{ "type": "Feature", "properties": { "road_id": 37, "highway": "residential" }, "geometry": { "type": "LineString", "coordinates": [ [ 11.557223298299277, 48.133747200888934 ], [ 11.570047003379816, 48.133777662315651 ], [ 11.5831039841545, 48.133747200888934 ] ] } },
{ "type": "Feature", "properties": { "road_id": 38, "highway": "residential" }, "geometry": { "type": "LineString", "coordinates": [ [ 11.556853287112679, 48.135246004681186 ], [ 11.570023990356013, 48.135297885551694 ], [ 11.58328469336948, 48.135246004681186 ] ] } },
{ "type": "Feature", "properties": { "road_id": 39, "highway": "residential" }, "geometry": { "type": "LineString", "coordinates": [ [ 11.555936392399616, 48.13674476472336 ], [ 11.569943678957321, 48.136625239056755 ], [ 11.583956661032339, 48.13674476472336 ] ] } },
{ "type": "Feature", "properties": { "road_id": 40, "highway": "residential" }, "geometry": { "type": "LineString", "coordinates": [ [ 11.556655911570344, 48.138243481015692 ], [ 11.570002172675821, 48.138036811750027 ], [ 11.583729943310047, 48.138243481015692 ] ] } },
{ "type": "Feature", "properties": { "road_id": 41, "highway": "service" }, "geometry": { "type": "LineString", "coordinates": [ [ 11.573912328093893, 48.124142423119999 ], [ 11.573383347330173, 48.124418949513476 ], [ 11.572569064092523, 48.124915713357659 ] ] } },
{ "type": "Feature", "properties": { "road_id": 42, "highway": "service" }, "geometry": { "type": "LineString", "coordinates": [ [ 11.58144526305103, 48.136786837644493 ], [ 11.581263794901369, 48.136471171756376 ], [ 11.580849027197447, 48.13615998154436 ] ] } },
{ "type": "Feature", "properties": { "road_id": 43, "highway": "service" }, "geometry": { "type": "LineString", "coordinates": [ [ 11.559034339917623, 48.137144310421014 ], [ 11.558295180632701, 48.136613461175273 ], [ 11.557631107058995, 48.136107312126299 ] ] } },
{ "type": "Feature", "properties": { "road_id": 44, "highway": "service" }, "geometry": { "type": "LineString", "coordinates": [ [ 11.580431769535776, 48.135033936419426 ], [ 11.581053323608188, 48.135386060326617 ], [ 11.581898927588671, 48.135605880783984 ] ] } },
{ "type": "Feature", "properties": { "road_id": 45, "highway": "service" }, "geometry": { "type": "LineString", "coordinates": [ [ 11.559259873874, 48.13294085816775 ], [ 11.55948408414941, 48.133175663904439 ], [ 11.559645969954145, 48.133351492342449 ] ] } },
{ "type": "Feature", "properties": { "road_id": 46, "highway": "service" }, "geometry": { "type": "LineString", "coordinates": [ [ 11.575718115125273, 48.125273623916861 ], [ 11.575772642982802, 48.124955876353575 ], [ 11.575691319610126, 48.124462408740833 ] ] } },
{ "type": "Feature", "properties": { "road_id": 47, "highway": "service" }, "geometry": { "type": "LineString", "coordinates": [ [ 11.559049755008498, 48.127620519853657 ], [ 11.55927615005789, 48.127977478982153 ], [ 11.559092178736057, 48.128369987969151 ] ] } },
{ "type": "Feature", "properties": { "road_id": 48, "highway": "service" }, "geometry": { "type": "LineString", "coordinates": [ [ 11.577945004997082, 48.13004743395333 ], [ 11.577016856565558, 48.130097351812019 ], [ 11.57634710954714, 48.130097610091234 ] ] } },
{ "type": "Feature", "properties": { "road_id": 49, "highway": "service" }, "geometry": { "type": "LineString", "coordinates": [ [ 11.573920399604882, 48.12419179016343 ], [ 11.575058546336448, 48.123981033772949 ], [ 11.575985604395392, 48.123781195680444 ] ] } },
{ "type": "Feature", "properties": { "road_id": 50, "highway": "service" }, "geometry": { "type": "LineString", "coordinates": [ [ 11.568064601683741, 48.138393137167718 ], [ 11.56868261432818, 48.137771597942276 ], [ 11.569385260446388, 48.137227108098692 ] ] } },
{ "type": "Feature", "properties": { "road_id": 51, "highway": "service" }, "geometry": { "type": "LineString", "coordinates": [ [ 11.561093008485074, 48.131021686670799 ], [ 11.560771208113854, 48.130278366968746 ], [ 11.560378395576796, 48.129669490843966 ] ] } },
{ "type": "Feature", "properties": { "road_id": 52, "highway": "service" }, "geometry": { "type": "LineString", "coordinates": [ [ 11.560300459096643, 48.130329698440924 ], [ 11.560298963697106, 48.129680067556521 ], [ 11.560181126745769, 48.128958055073802 ] ] } },
{ "type": "Feature", "properties": { "road_id": 53, "highway": "service" }, "geometry": { "type": "LineString", "coordinates": [ [ 11.578337115628377, 48.135577775077813 ], [ 11.57924134355491, 48.135233675842208 ], [ 11.580083827617546, 48.134870865878625 ] ] } },
{ "type": "Feature", "properties": { "road_id": 54, "highway": "service" }, "geometry": { "type": "LineString", "coordinates": [ [ 11.575442897981794, 48.135320212367652 ], [ 11.574859643697117, 48.135785062479002 ], [ 11.574351737951218, 48.136500274990823 ] ] } },
{ "type": "Feature", "properties": { "road_id": 55, "highway": "service" }, "geometry": { "type": "LineString", "coordinates": [ [ 11.569072885216531, 48.13076705272023 ], [ 11.568446667174308, 48.130439258357796 ], [ 11.56809989677032, 48.130350141246261 ] ] } },
{ "type": "Feature", "properties": { "road_id": 56, "highway": "service" }, "geometry": { "type": "LineString", "coordinates": [ [ 11.559949482753908, 48.130400092865337 ], [ 11.560155235939531, 48.130920244387845 ], [ 11.560353219843403, 48.13163551682252 ] ] } },
{ "type": "Feature", "properties": { "road_id": 57, "highway": "service" }, "geometry": { "type": "LineString", "coordinates": [ [ 11.571095094524432, 48.132471922450314 ], [ 11.572030717513217, 48.132323549871607 ], [ 11.5729015921663, 48.132287573144815 ] ] } },
{ "type": "Feature", "properties": { "road_id": 58, "highway": "service" }, "geometry": { "type": "LineString", "coordinates": [ [ 11.568355312833555, 48.122417042199231 ], [ 11.568836162729303, 48.122385675604633 ], [ 11.569091917555435, 48.122299476813616 ] ] } },
{ "type": "Feature", "properties": { "road_id": 59, "highway": "service" }, "geometry": { "type": "LineString", "coordinates": [ [ 11.560741164331224, 48.125507367432704 ], [ 11.56066779209862, 48.124961872215735 ], [ 11.560397571177669, 48.124493408894466 ] ] } },
{ "type": "Feature", "properties": { "road_id": 60, "highway": "service" }, "geometry": { "type": "LineString", "coordinates": [ [ 11.571464812283747, 48.132009506382531 ], [ 11.571379126897885, 48.132501932199958 ], [ 11.571484192617548, 48.132916718074853 ] ] } },
{ "type": "Feature", "properties": { "road_id": 61, "highway": "service" }, "geometry": { "type": "LineString", "coordinates": [ [ 11.557765017031349, 48.121738323233757 ], [ 11.557464308034541, 48.120992798065281 ], [ 11.557183665390488, 48.120443382616045 ] ] } },
{ "type": "Feature", "properties": { "road_id": 62, "highway": "service" }, "geometry": { "type": "LineString", "coordinates": [ [ 11.561192967347555, 48.128810161243791 ], [ 11.560734815048535, 48.128413966731948 ], [ 11.560202104877368, 48.128220783252388 ] ] } },
{ "type": "Feature", "properties": { "road_id": 63, "highway": "service" }, "geometry": { "type": "LineString", "coordinates": [ [ 11.570084520470525, 48.136411861066193 ], [ 11.570336213763804, 48.136942625877658 ], [ 11.570981587208552, 48.137394798099798 ] ] } },
{ "type": "Feature", "properties": { "road_id": 64, "highway": "service" }, "geometry": { "type": "LineString", "coordinates": [ [ 11.58186396663211, 48.131357552737768 ], [ 11.581481178437834, 48.131018760993236 ], [ 11.581049076979761, 48.130671744588248 ] ] } },
{ "type": "Feature", "properties": { "road_id": 65, "highway": "service" }, "geometry": { "type": "LineString", "coordinates": [ [ 11.582428835971244, 48.137290613807693 ], [ 11.582710218475457, 48.137329401727605 ], [ 11.583351366375551, 48.137577303302407 ] ] } },
{ "type": "Feature", "properties": { "road_id": 66, "highway": "service" }, "geometry": { "type": "LineString", "coordinates": [ [ 11.558443766267237, 48.126743771513468 ], [ 11.559516189196426, 48.126800932950424 ], [ 11.56043122032446, 48.126939142886755 ] ] } },
{ "type": "Feature", "properties": { "road_id": 67, "highway": "service" }, "geometry": { "type": "LineString", "coordinates": [ [ 11.573474939901208, 48.136789223516381 ], [ 11.573722694033922, 48.136150257382567 ], [ 11.574082063294167, 48.135629195572704 ] ] } },
{ "type": "Feature", "properties": { "road_id": 68, "highway": "service" }, "geometry": { "type": "LineString", "coordinates": [ [ 11.583218847979953, 48.128428210831395 ], [ 11.583300126794942, 48.128103726791508 ], [ 11.583431418969704, 48.127581129699848 ] ] } },
{ "type": "Feature", "properties": { "road_id": 69, "highway": "service" }, "geometry": { "type": "LineString", "coordinates": [ [ 11.576760839436215, 48.134578314711703 ], [ 11.577105050619279, 48.134512285633306 ], [ 11.577477817611941, 48.134242256307289 ] ] } },
{ "type": "Feature", "properties": { "road_id": 70, "highway": "service" }, "geometry": { "type": "LineString", "coordinates": [ [ 11.567014045236565, 48.121200575206572 ], [ 11.567872108891635, 48.121693519642641 ], [ 11.568779065746046, 48.121961742014363 ] ] } }
]
}
